STARLINK-32444          
1 62073U 24217S   26068.64478530  .00028857  00000+0  98311-3 0  9997
2 62073  53.1581 194.1821 0001041  71.1129 288.9984 15.30185337 73415
KUIPER-00223            
1 67783U 26030V   26068.72136600  .00030225  00000+0  90645-3 0  9997
2 67783  51.8827 219.2782 0012824  59.0052 301.2192 15.34146210  5092
